ICEYE-X43               
1 60539U 24149BZ  26195.78458951  .00000811  00000+0  70364-4 0  9996
2 60539  97.6800 272.3796 0006589 349.7264  10.3824 14.99785896104250
ICEYE-X40               
1 60549U 24149CK  26195.75628354  .00001417  00000+0  12472-3 0  9998
2 60549  97.6797 271.8091 0003971   7.7825 352.3459 14.98068753104207
ICEYE-X49               
1 62384U 24247H   26194.44042813  .00001480  00000+0  95125-4 0  9998
2 62384  44.9963 217.1632 0001421 241.3726 118.7009 15.13608718 86151
ICEYE-X47               
1 62389U 24247N   26195.40633527  .00000854  00000+0  61032-4 0  9992
2 62389  44.9951 211.5966 0001496 343.0956  16.9872 15.13483146 86308
ICEYE-X42               
1 62698U 25009CT  26195.77375604  .00001087  00000+0  11309-3 0  9991
2 62698  97.7390 273.5914 0001299  96.7593 263.3773 14.91853250 81401
ICEYE-X41               
1 62700U 25009CV  26195.81254015  .00001498  00000+0  13552-3 0  9990
2 62700  97.7060 274.9383 0000296 299.9754  60.1439 14.96911424 81546
ICEYE-X45               
1 62705U 25009DA  26195.86456249  .00005292  00000+0  42109-3 0  9999
2 62705  97.8415 282.7786 0001183  92.7384 267.3975 15.00838748 81835
ICEYE-X44               
1 62707U 25009DC  26195.77463737  .00001918  00000+0  17540-3 0  9993
2 62707  97.7059 274.4652 0002548  72.9033 287.2467 14.96166017104062
ICEYE-X48               
1 63253U 25052AV  26195.70946580  .00001755  00000+0  15306-3 0  9990
2 63253  97.6838  87.4742 0003926 105.5467 254.6189 14.98123913 72793
ICEYE-X46               
1 63258U 25052BA  26195.65733234  .00001201  00000+0  11391-3 0  9995
2 63258  97.6860  87.0205 0001704  82.4988 277.6426 14.95366390 72756
